{
  "links" : {
    "next" : "https://api.nasa.gov/neo/rest/v1/feed?start_date=2008-07-09&end_date=2008-07-09&detailed=true&api_key=t0TVs3DtDT2H8Oy2Zy8m2eVrNsAVKAexjcZXUckd",
    "prev" : "https://api.nasa.gov/neo/rest/v1/feed?start_date=2008-07-07&end_date=2008-07-07&detailed=true&api_key=t0TVs3DtDT2H8Oy2Zy8m2eVrNsAVKAexjcZXUckd",
    "self" : "https://api.nasa.gov/neo/rest/v1/feed?start_date=2008-07-08&end_date=2008-07-08&detailed=true&api_key=t0TVs3DtDT2H8Oy2Zy8m2eVrNsAVKAexjcZXUckd"
  },
  "element_count" : 6,
  "near_earth_objects" : {
    "2008-07-08" : [ {
      "links" : {
        "self" : "https://api.nasa.gov/neo/rest/v1/neo/2088254?api_key=t0TVs3DtDT2H8Oy2Zy8m2eVrNsAVKAexjcZXUckd"
      },
      "neo_reference_id" : "2088254",
      "name" : "88254 (2001 FM129)",
      "nasa_jpl_url" : "http://ssd.jpl.nasa.gov/sbdb.cgi?sstr=2088254",
      "absolute_magnitude_h" : 17.6,
      "estimated_diameter" : {
        "kilometers" : {
          "estimated_diameter_min" : 0.8027031673,
          "estimated_diameter_max" : 1.7948988478
        },
        "meters" : {
          "estimated_diameter_min" : 802.7031672829,
          "estimated_diameter_max" : 1794.8988477988
        },
        "miles" : {
          "estimated_diameter_min" : 0.4987764698,
          "estimated_diameter_max" : 1.115298092
        },
        "feet" : {
          "estimated_diameter_min" : 2633.5406593483,
          "estimated_diameter_max" : 5888.7759358124
        }
      },
      "is_potentially_hazardous_asteroid" : true,
      "close_approach_data" : [ {
        "close_approach_date" : "2008-07-08",
        "epoch_date_close_approach" : 1215500400000,
        "relative_velocity" : {
          "kilometers_per_second" : "12.1349891913",
          "kilometers_per_hour" : "43685.9610886951",
          "miles_per_hour" : "27144.7573220284"
        },
        "miss_distance" : {
          "astronomical" : "0.4835579015",
          "lunar" : "188.1040344238",
          "kilometers" : "72339232",
          "miles" : "44949516"
        },
        "orbiting_body" : "Earth"
      } ],
      "orbital_data" : {
        "orbit_id" : "121",
        "orbit_determination_date" : "2017-08-16 06:21:37",
        "orbit_uncertainty" : "0",
        "minimum_orbit_intersection" : ".0100036",
        "jupiter_tisserand_invariant" : "5.142",
        "epoch_osculation" : "2458000.5",
        "eccentricity" : ".6296879623294294",
        "semi_major_axis" : "1.182134944476101",
        "inclination" : "1.521417366146007",
        "ascending_node_longitude" : "272.26806726401",
        "orbital_period" : "469.4604493092067",
        "perihelion_distance" : ".4377588000905317",
        "perihelion_argument" : "140.0316773687173",
        "aphelion_distance" : "1.92651108886167",
        "perihelion_time" : "2458035.258191389126",
        "mean_anomaly" : "333.3461063258945",
        "mean_motion" : ".7668377613699437",
        "equinox" : "J2000"
      }
    }, {
      "links" : {
        "self" : "https://api.nasa.gov/neo/rest/v1/neo/3275203?api_key=t0TVs3DtDT2H8Oy2Zy8m2eVrNsAVKAexjcZXUckd"
      },
      "neo_reference_id" : "3275203",
      "name" : "(2005 FE3)",
      "nasa_jpl_url" : "http://ssd.jpl.nasa.gov/sbdb.cgi?sstr=3275203",
      "absolute_magnitude_h" : 19.3,
      "estimated_diameter" : {
        "kilometers" : {
          "estimated_diameter_min" : 0.3669061375,
          "estimated_diameter_max" : 0.8204270649
        },
        "meters" : {
          "estimated_diameter_min" : 366.9061375314,
          "estimated_diameter_max" : 820.4270648822
        },
        "miles" : {
          "estimated_diameter_min" : 0.2279848336,
          "estimated_diameter_max" : 0.5097895857
        },
        "feet" : {
          "estimated_diameter_min" : 1203.7603322587,
          "estimated_diameter_max" : 2691.6899315481
        }
      },
      "is_potentially_hazardous_asteroid" : true,
      "close_approach_data" : [ {
        "close_approach_date" : "2008-07-08",
        "epoch_date_close_approach" : 1215500400000,
        "relative_velocity" : {
          "kilometers_per_second" : "17.2718365698",
          "kilometers_per_hour" : "62178.611651339",
          "miles_per_hour" : "38635.3712230223"
        },
        "miss_distance" : {
          "astronomical" : "0.2414113886",
          "lunar" : "93.9090270996",
          "kilometers" : "36114628",
          "miles" : "22440590"
        },
        "orbiting_body" : "Earth"
      } ],
      "orbital_data" : {
        "orbit_id" : "22",
        "orbit_determination_date" : "2017-04-06 09:11:12",
        "orbit_uncertainty" : "0",
        "minimum_orbit_intersection" : ".0308138",
        "jupiter_tisserand_invariant" : "3.511",
        "epoch_osculation" : "2458000.5",
        "eccentricity" : ".5318330998903195",
        "semi_major_axis" : "2.116372198877662",
        "inclination" : "13.112213235274",
        "ascending_node_longitude" : "90.56972827780194",
        "orbital_period" : "1124.570013007947",
        "perihelion_distance" : ".9908154118268632",
        "perihelion_argument" : "145.1416234350733",
        "aphelion_distance" : "3.24192898592846",
        "perihelion_time" : "2457996.467179199304",
        "mean_anomaly" : "1.290996088689194",
        "mean_motion" : ".3201223541761431",
        "equinox" : "J2000"
      }
    }, {
      "links" : {
        "self" : "https://api.nasa.gov/neo/rest/v1/neo/3409990?api_key=t0TVs3DtDT2H8Oy2Zy8m2eVrNsAVKAexjcZXUckd"
      },
      "neo_reference_id" : "3409990",
      "name" : "(2008 JP)",
      "nasa_jpl_url" : "http://ssd.jpl.nasa.gov/sbdb.cgi?sstr=3409990",
      "absolute_magnitude_h" : 20.8,
      "estimated_diameter" : {
        "kilometers" : {
          "estimated_diameter_min" : 0.1838886721,
          "estimated_diameter_max" : 0.411187571
        },
        "meters" : {
          "estimated_diameter_min" : 183.8886720703,
          "estimated_diameter_max" : 411.1875710413
        },
        "miles" : {
          "estimated_diameter_min" : 0.1142630881,
          "estimated_diameter_max" : 0.2555000322
        },
        "feet" : {
          "estimated_diameter_min" : 603.309310875,
          "estimated_diameter_max" : 1349.040630575
        }
      },
      "is_potentially_hazardous_asteroid" : false,
      "close_approach_data" : [ {
        "close_approach_date" : "2008-07-08",
        "epoch_date_close_approach" : 1215500400000,
        "relative_velocity" : {
          "kilometers_per_second" : "15.4830866692",
          "kilometers_per_hour" : "55739.1120090404",
          "miles_per_hour" : "34634.116570284"
        },
        "miss_distance" : {
          "astronomical" : "0.4572714611",
          "lunar" : "177.8786010742",
          "kilometers" : "68406840",
          "miles" : "42506036"
        },
        "orbiting_body" : "Earth"
      } ],
      "orbital_data" : {
        "orbit_id" : "14",
        "orbit_determination_date" : "2017-04-06 09:03:32",
        "orbit_uncertainty" : "1",
        "minimum_orbit_intersection" : ".139562",
        "jupiter_tisserand_invariant" : "4.152",
        "epoch_osculation" : "2458000.5",
        "eccentricity" : ".6484477073621906",
        "semi_major_axis" : "1.546900366446805",
        "inclination" : "18.3852313277902",
        "ascending_node_longitude" : "31.12087676180657",
        "orbital_period" : "702.7355761911197",
        "perihelion_distance" : ".5438163703066418",
        "perihelion_argument" : "307.2900472835136",
        "aphelion_distance" : "2.549984362586968",
        "perihelion_time" : "2458196.408725524715",
        "mean_anomaly" : "259.6391479549678",
        "mean_motion" : ".5122837269051148",
        "equinox" : "J2000"
      }
    } ]
  }
}